[
  {
    "OBJECT_NAME": "STARLINK-32409",
    "OBJECT_ID": "2024-187T",
    "EPOCH": "2025-05-24T12:02:08.962368",
    "MEAN_MOTION": 15.39618192,
    "ECCENTRICITY": 0.0001302,
    "INCLINATION": 53.1615,
    "RA_OF_ASC_NODE": 326.428,
    "ARG_OF_PERICENTER": 111.7674,
    "MEAN_ANOMALY": 248.347,
    "EPHEMERIS_TYPE": 0,
    "CLASSIFICATION_TYPE": "U",
    "NORAD_CAT_ID": 61591,
    "ELEMENT_SET_NO": 999,
    "REV_AT_EPOCH": 3483,
    "BSTAR": -1.7047e-05,
    "MEAN_MOTION_DOT": -1.081e-05,
    "MEAN_MOTION_DDOT": 0
  },
  {
    "OBJECT_NAME": "STARLINK-32422",
    "OBJECT_ID": "2024-187U",
    "EPOCH": "2025-05-24T19:02:43.792224",
    "MEAN_MOTION": 15.39610907,
    "ECCENTRICITY": 7.6e-05,
    "INCLINATION": 53.1599,
    "RA_OF_ASC_NODE": 324.6942,
    "ARG_OF_PERICENTER": 91.1129,
    "MEAN_ANOMALY": 268.9962,
    "EPHEMERIS_TYPE": 0,
    "CLASSIFICATION_TYPE": "U",
    "NORAD_CAT_ID": 61592,
    "ELEMENT_SET_NO": 999,
    "REV_AT_EPOCH": 3488,
    "BSTAR": -1.1777e-05,
    "MEAN_MOTION_DOT": -8.7e-06,
    "MEAN_MOTION_DDOT": 0
  },
  {
    "OBJECT_NAME": "STARLINK-32397",
    "OBJECT_ID": "2024-187V",
    "EPOCH": "2025-05-24T17:08:50.735904",
    "MEAN_MOTION": 15.39608662,
    "ECCENTRICITY": 6.71e-05,
    "INCLINATION": 53.1607,
    "RA_OF_ASC_NODE": 325.6251,
    "ARG_OF_PERICENTER": 71.0261,
    "MEAN_ANOMALY": 289.0817,
    "EPHEMERIS_TYPE": 0,
    "CLASSIFICATION_TYPE": "U",
    "NORAD_CAT_ID": 61593,
    "ELEMENT_SET_NO": 999,
    "REV_AT_EPOCH": 3486,
    "BSTAR": -2.4036e-05,
    "MEAN_MOTION_DOT": -1.36e-05,
    "MEAN_MOTION_DDOT": 0
  },
  {
    "OBJECT_NAME": "STARLINK-32302",
    "OBJECT_ID": "2024-191A",
    "EPOCH": "2025-05-24T13:52:55.253856",
    "MEAN_MOTION": 15.27578439,
    "ECCENTRICITY": 0.0001126,
    "INCLINATION": 42.9997,
    "RA_OF_ASC_NODE": 346.9881,
    "ARG_OF_PERICENTER": 276.342,
    "MEAN_ANOMALY": 83.7303,
    "EPHEMERIS_TYPE": 0,
    "CLASSIFICATION_TYPE": "U",
    "NORAD_CAT_ID": 61621,
    "ELEMENT_SET_NO": 999,
    "REV_AT_EPOCH": 3407,
    "BSTAR": 2.052e-05,
    "MEAN_MOTION_DOT": 3.03e-06,
    "MEAN_MOTION_DDOT": 0
  },
  {
    "OBJECT_NAME": "STARLINK-32364",
    "OBJECT_ID": "2024-191B",
    "EPOCH": "2025-05-24T20:24:20.990880",
    "MEAN_MOTION": 15.27578408,
    "ECCENTRICITY": 0.0001377,
    "INCLINATION": 42.9999,
    "RA_OF_ASC_NODE": 345.5944,
    "ARG_OF_PERICENTER": 282.9313,
    "MEAN_ANOMALY": 77.1385,
    "EPHEMERIS_TYPE": 0,
    "CLASSIFICATION_TYPE": "U",
    "NORAD_CAT_ID": 61622,
    "ELEMENT_SET_NO": 999,
    "REV_AT_EPOCH": 3406,
    "BSTAR": 2.3136e-05,
    "MEAN_MOTION_DOT": 3.75e-06,
    "MEAN_MOTION_DDOT": 0
  },
  {
    "OBJECT_NAME": "STARLINK-32331",
    "OBJECT_ID": "2024-191C",
    "EPOCH": "2025-05-24T20:42:09.586944",
    "MEAN_MOTION": 15.27576977,
    "ECCENTRICITY": 0.0001142,
    "INCLINATION": 43.0057,
    "RA_OF_ASC_NODE": 349.1473,
    "ARG_OF_PERICENTER": 282.5772,
    "MEAN_ANOMALY": 77.4952,
    "EPHEMERIS_TYPE": 0,
    "CLASSIFICATION_TYPE": "U",
    "NORAD_CAT_ID": 61623,
    "ELEMENT_SET_NO": 999,
    "REV_AT_EPOCH": 3397,
    "BSTAR": -6.9035e-06,
    "MEAN_MOTION_DOT": -4.52e-06,
    "MEAN_MOTION_DDOT": 0
  },
  {
    "OBJECT_NAME": "STARLINK-32398",
    "OBJECT_ID": "2024-191D",
    "EPOCH": "2025-05-24T17:32:41.296128",
    "MEAN_MOTION": 15.27573157,
    "ECCENTRICITY": 0.0001051,
    "INCLINATION": 42.9978,
    "RA_OF_ASC_NODE": 346.4192,
    "ARG_OF_PERICENTER": 274.3534,
    "MEAN_ANOMALY": 85.7198,
    "EPHEMERIS_TYPE": 0,
    "CLASSIFICATION_TYPE": "U",
    "NORAD_CAT_ID": 61624,
    "ELEMENT_SET_NO": 999,
    "REV_AT_EPOCH": 3404,
    "BSTAR": 2.8884e-05,
    "MEAN_MOTION_DOT": 5.33e-06,
    "MEAN_MOTION_DDOT": 0
  },
  {
    "OBJECT_NAME": "STARLINK-32365",
    "OBJECT_ID": "2024-191E",
    "EPOCH": "2025-05-24T06:05:50.322624",
    "MEAN_MOTION": 15.27582376,
    "ECCENTRICITY": 0.0001033,
    "INCLINATION": 42.9977,
    "RA_OF_ASC_NODE": 348.8546,
    "ARG_OF_PERICENTER": 278.2466,
    "MEAN_ANOMALY": 81.8269,
    "EPHEMERIS_TYPE": 0,
    "CLASSIFICATION_TYPE": "U",
    "NORAD_CAT_ID": 61625,
    "ELEMENT_SET_NO": 999,
    "REV_AT_EPOCH": 3327,
    "BSTAR": 2.1319e-05,
    "MEAN_MOTION_DOT": 3.25e-06,
    "MEAN_MOTION_DDOT": 0
  },
  {
    "OBJECT_NAME": "STARLINK-32333",
    "OBJECT_ID": "2024-191F",
    "EPOCH": "2025-05-24T14:42:10.664352",
    "MEAN_MOTION": 15.27576786,
    "ECCENTRICITY": 0.0001342,
    "INCLINATION": 43.0046,
    "RA_OF_ASC_NODE": 350.7102,
    "ARG_OF_PERICENTER": 277.4759,
    "MEAN_ANOMALY": 82.594,
    "EPHEMERIS_TYPE": 0,
    "CLASSIFICATION_TYPE": "U",
    "NORAD_CAT_ID": 61626,
    "ELEMENT_SET_NO": 999,
    "REV_AT_EPOCH": 3328,
    "BSTAR": 3.7228e-05,
    "MEAN_MOTION_DOT": 7.62e-06,
    "MEAN_MOTION_DDOT": 0
  },
  {
    "OBJECT_NAME": "STARLINK-32399",
    "OBJECT_ID": "2024-191G",
    "EPOCH": "2025-05-23T23:39:39.426336",
    "MEAN_MOTION": 15.40693745,
    "ECCENTRICITY": 0.0001495,
    "INCLINATION": 43.0037,
    "RA_OF_ASC_NODE": 346.8197,
    "ARG_OF_PERICENTER": 265.4777,
    "MEAN_ANOMALY": 94.5908,
    "EPHEMERIS_TYPE": 0,
    "CLASSIFICATION_TYPE": "U",
    "NORAD_CAT_ID": 61627,
    "ELEMENT_SET_NO": 999,
    "REV_AT_EPOCH": 3327,
    "BSTAR": 1.0091e-05,
    "MEAN_MOTION_DOT": 1.18e-06,
    "MEAN_MOTION_DDOT": 0
  },
  {
    "OBJECT_NAME": "STARLINK-32421",
    "OBJECT_ID": "2024-191H",
    "EPOCH": "2025-05-24T12:59:28.356288",
    "MEAN_MOTION": 15.27593886,
    "ECCENTRICITY": 7.52e-05,
    "INCLINATION": 42.9992,
    "RA_OF_ASC_NODE": 347.577,
    "ARG_OF_PERICENTER": 274.4708,
    "MEAN_ANOMALY": 85.6058,
    "EPHEMERIS_TYPE": 0,
    "CLASSIFICATION_TYPE": "U",
    "NORAD_CAT_ID": 61628,
    "ELEMENT_SET_NO": 999,
    "REV_AT_EPOCH": 3331,
    "BSTAR": 4.2422e-05,
    "MEAN_MOTION_DOT": 9.06e-06,
    "MEAN_MOTION_DDOT": 0
  },
  {
    "OBJECT_NAME": "STARLINK-32403",
    "OBJECT_ID": "2024-191J",
    "EPOCH": "2025-05-24T20:35:27.270528",
    "MEAN_MOTION": 15.27574004,
    "ECCENTRICITY": 0.0001139,
    "INCLINATION": 42.995,
    "RA_OF_ASC_NODE": 345.6478,
    "ARG_OF_PERICENTER": 304.7743,
    "MEAN_ANOMALY": 55.3002,
    "EPHEMERIS_TYPE": 0,
    "CLASSIFICATION_TYPE": "U",
    "NORAD_CAT_ID": 61629,
    "ELEMENT_SET_NO": 999,
    "REV_AT_EPOCH": 3407,
    "BSTAR": -2.5699e-06,
    "MEAN_MOTION_DOT": -3.33e-06,
    "MEAN_MOTION_DDOT": 0
  },
  {
    "OBJECT_NAME": "STARLINK-32390",
    "OBJECT_ID": "2024-191K",
    "EPOCH": "2025-05-24T14:44:43.988928",
    "MEAN_MOTION": 15.27573084,
    "ECCENTRICITY": 5.63e-05,
    "INCLINATION": 42.999,
    "RA_OF_ASC_NODE": 347.2645,
    "ARG_OF_PERICENTER": 286.1506,
    "MEAN_ANOMALY": 73.9284,
    "EPHEMERIS_TYPE": 0,
    "CLASSIFICATION_TYPE": "U",
    "NORAD_CAT_ID": 61630,
    "ELEMENT_SET_NO": 999,
    "REV_AT_EPOCH": 3332,
    "BSTAR": 6.0287e-05,
    "MEAN_MOTION_DOT": 1.397e-05,
    "MEAN_MOTION_DDOT": 0
  },
  {
    "OBJECT_NAME": "STARLINK-32348",
    "OBJECT_ID": "2024-191L",
    "EPOCH": "2025-05-24T14:31:05.102688",
    "MEAN_MOTION": 15.27573001,
    "ECCENTRICITY": 0.0001404,
    "INCLINATION": 42.9977,
    "RA_OF_ASC_NODE": 350.6527,
    "ARG_OF_PERICENTER": 285.6818,
    "MEAN_ANOMALY": 74.3879,
    "EPHEMERIS_TYPE": 0,
    "CLASSIFICATION_TYPE": "U",
    "NORAD_CAT_ID": 61631,
    "ELEMENT_SET_NO": 999,
    "REV_AT_EPOCH": 3398,
    "BSTAR": 4.8734e-05,
    "MEAN_MOTION_DOT": 1.079e-05,
    "MEAN_MOTION_DDOT": 0
  },
  {
    "OBJECT_NAME": "STARLINK-32455",
    "OBJECT_ID": "2024-191M",
    "EPOCH": "2025-05-24T14:53:17.292192",
    "MEAN_MOTION": 15.27574843,
    "ECCENTRICITY": 8.19e-05,
    "INCLINATION": 43.0036,
    "RA_OF_ASC_NODE": 350.7698,
    "ARG_OF_PERICENTER": 281.7699,
    "MEAN_ANOMALY": 78.3061,
    "EPHEMERIS_TYPE": 0,
    "CLASSIFICATION_TYPE": "U",
    "NORAD_CAT_ID": 61632,
    "ELEMENT_SET_NO": 999,
    "REV_AT_EPOCH": 3328,
    "BSTAR": 5.6335e-05,
    "MEAN_MOTION_DOT": 1.288e-05,
    "MEAN_MOTION_DDOT": 0
  },
  {
    "OBJECT_NAME": "STARLINK-32396",
    "OBJECT_ID": "2024-191N",
    "EPOCH": "2025-05-24T20:53:15.870048",
    "MEAN_MOTION": 15.27573804,
    "ECCENTRICITY": 5.17e-05,
    "INCLINATION": 43.0019,
    "RA_OF_ASC_NODE": 349.2052,
    "ARG_OF_PERICENTER": 334.8455,
    "MEAN_ANOMALY": 25.2371,
    "EPHEMERIS_TYPE": 0,
    "CLASSIFICATION_TYPE": "U",
    "NORAD_CAT_ID": 61633,
    "ELEMENT_SET_NO": 999,
    "REV_AT_EPOCH": 3403,
    "BSTAR": 5.1945e-05,
    "MEAN_MOTION_DOT": 1.168e-05,
    "MEAN_MOTION_DDOT": 0
  },
  {
    "OBJECT_NAME": "STARLINK-32355",
    "OBJECT_ID": "2024-191P",
    "EPOCH": "2025-05-24T14:56:59.602848",
    "MEAN_MOTION": 15.27569465,
    "ECCENTRICITY": 0.0001029,
    "INCLINATION": 43.0032,
    "RA_OF_ASC_NODE": 350.7874,
    "ARG_OF_PERICENTER": 265.8831,
    "MEAN_ANOMALY": 94.1903,
    "EPHEMERIS_TYPE": 0,
    "CLASSIFICATION_TYPE": "U",
    "NORAD_CAT_ID": 61634,
    "ELEMENT_SET_NO": 999,
    "REV_AT_EPOCH": 3398,
    "BSTAR": 6.7764e-05,
    "MEAN_MOTION_DOT": 1.603e-05,
    "MEAN_MOTION_DDOT": 0
  },
  {
    "OBJECT_NAME": "STARLINK-32370",
    "OBJECT_ID": "2024-191Q",
    "EPOCH": "2025-05-24T20:03:59.846112",
    "MEAN_MOTION": 15.27575765,
    "ECCENTRICITY": 0.0001347,
    "INCLINATION": 42.9993,
    "RA_OF_ASC_NODE": 345.4808,
    "ARG_OF_PERICENTER": 272.9829,
    "MEAN_ANOMALY": 87.0869,
    "EPHEMERIS_TYPE": 0,
    "CLASSIFICATION_TYPE": "U",
    "NORAD_CAT_ID": 61635,
    "ELEMENT_SET_NO": 999,
    "REV_AT_EPOCH": 3406,
    "BSTAR": 3.2038e-06,
    "MEAN_MOTION_DOT": -1.74e-06,
    "MEAN_MOTION_DDOT": 0
  }
]